[{"OBJECT_NAME":"COSMOS 2409","OBJECT_ID":"2004-037B","EPOCH":"2026-03-09T23:45:47.975040","MEAN_MOTION":12.45320946,"ECCENTRICITY":0.00142208,"INCLINATION":82.4869,"RA_OF_ASC_NODE":31.1814,"ARG_OF_PERICENTER":132.9938,"MEAN_ANOMALY":227.2338,"EPHEMERIS_TYPE":0,"CLASSIFICATION_TYPE":"U","NORAD_CAT_ID":28420,"ELEMENT_SET_NO":999,"REV_AT_EPOCH":97520,"BSTAR":-0.00011281678,"MEAN_MOTION_DOT":-6.0e-8,"MEAN_MOTION_DDOT":0},{"OBJECT_NAME":"THORAD DELTA 1 DEB","OBJECT_ID":"1974-089EB","EPOCH":"2026-03-09T10:33:39.943296","MEAN_MOTION":12.40455579,"ECCENTRICITY":0.00949269,"INCLINATION":102.3347,"RA_OF_ASC_NODE":64.4822,"ARG_OF_PERICENTER":335.5777,"MEAN_ANOMALY":182.7858,"EPHEMERIS_TYPE":0,"CLASSIFICATION_TYPE":"U","NORAD_CAT_ID":9984,"ELEMENT_SET_NO":999,"REV_AT_EPOCH":32493,"BSTAR":0.00014866081,"MEAN_MOTION_DOT":-2.7e-7,"MEAN_MOTION_DDOT":0}]
